STARLINK-36085          
1 67035U 25294F   26146.48915529  .00025409  00000+0  92923-3 0  9992
2 67035  43.0001 319.0506 0001572 273.4011  86.6661 15.27595551 26699
STARLINK-36125          
1 67036U 25294G   26146.45959453  .00036077  00000+0  13124-2 0  9992
2 67036  42.9965 318.8306 0002437  62.8693 297.2407 15.27623294 26693
STARLINK-35732          
1 67037U 25294H   26146.87377185  .00018510  00000+0  68116-3 0  9999
2 67037  43.0001 316.7808 0001465 264.6844  95.3841 15.27546452 26757
STARLINK-35775          
1 67038U 25294J   26146.83907170  .00029768  00000+0  10868-2 0  9996
2 67038  43.0007 316.5146 0001669 282.3367  77.7298 15.27584810 26761
STARLINK-35705          
1 67039U 25294K   26146.84420359  .00028381  00000+0  10364-2 0  9998
2 67039  43.0018 316.5490 0001633 264.3390  95.7276 15.27596844 26758
STARLINK-35786          
1 67040U 25294L   26146.80580648  .00017562  00000+0  64587-3 0  9990
2 67040  43.0013 317.1333 0001510 292.2648  67.8043 15.27597086 26748
STARLINK-35765          
1 67041U 25294M   26146.85962152  .00014132  00000+0  52179-3 0  9994
2 67041  43.0026 316.6695 0001636 253.3145 106.7527 15.27598708 26750
STARLINK-35773          
1 67042U 25294N   26146.46474116  .00024382  00000+0  89207-3 0  9990
2 67042  42.9991 318.8665 0000980 248.0606 112.0141 15.27600516 26691
STARLINK-35901          
1 67043U 25294P   26146.53783521  .00016538  00000+0  60877-3 0  9998
2 67043  42.9985 318.5540 0001225 220.0299 140.0463 15.27600427 26706
STARLINK-35884          
1 67044U 25294Q   26146.89160448  .00029357  00000+0  10715-2 0  9993
2 67044  43.0038 316.0513 0002063 270.7418  89.3198 15.27598287 26763
STARLINK-35891          
1 67045U 25294R   26146.87761693  .00024378  00000+0  89176-3 0  9997
2 67045  43.0029 316.8036 0001082 289.8006  70.2729 15.27607299 26758
STARLINK-35721          
1 67046U 25294S   26146.86990241  .00024669  00000+0  90229-3 0  9994
2 67046  43.0041 316.7497 0002494 278.9669  81.0901 15.27603508 26756
STARLINK-35779          
1 67047U 25294T   26146.52240727  .00009920  00000+0  36934-3 0  9991
2 67047  43.0017 318.4384 0000238  91.0087 269.0792 15.27595777 26705
STARLINK-35905          
1 67048U 25294U   26146.86090906  .00020698  00000+0  75911-3 0  9994
2 67048  43.0026 316.6837 0001639 262.4704  97.5961 15.27599315 26754
STARLINK-35877          
1 67049U 25294V   26146.87504443  .00028486  00000+0  10398-2 0  9992
2 67049  43.0044 316.7908 0002411 281.7671  78.2910 15.27605750 26752
STARLINK-36078          
1 67050U 25294W   26146.51085363  .00027022  00000+0  98760-3 0  9995
2 67050  43.0014 318.3441 0000640 225.5972 134.4828 15.27589946 26709
STARLINK-35706          
1 67051U 25294X   26146.52883992  .00021518  00000+0  78865-3 0  9999
2 67051  42.9983 318.4817 0000840 252.7407 107.3353 15.27601769 26708
STARLINK-35720          
1 67052U 25294Y   26146.52113944  .00038856  00000+0  14129-2 0  9998
2 67052  43.0047 318.4244 0001592 305.6361  54.4342 15.27606775 26700
STARLINK-35739          
1 67053U 25294Z   26146.47373219  .00022698  00000+0  83139-3 0  9991
2 67053  43.0011 318.9318 0001267 255.9900 104.0811 15.27596985 26696
STARLINK-35754          
1 67054U 25294AA  26146.85063366  .00018128  00000+0  66661-3 0  9997
2 67054  42.9984 316.5998 0001411 274.0669  86.0022 15.27582711 26759
STARLINK-35790          
1 67055U 25294AB  26146.54171592  .00023912  00000+0  87681-3 0  9997
2 67055  43.0005 318.5835 0001158 267.0789  92.9930 15.27536452 26701
STARLINK-36143          
1 67056U 25294AC  26146.51855989  .00017003  00000+0  62574-3 0  9992
2 67056  43.0028 318.4065 0001025 265.9348  94.1387 15.27593105 26700
STARLINK-36141          
1 67057U 25294AD  26146.84163574  .00017165  00000+0  63151-3 0  9992
2 67057  43.0021 316.5301 0001564 282.9509  77.1168 15.27596373 26755
STARLINK-35767          
1 67058U 25294AE  26146.87630271 -.00003241  00000+0 -10828-3 0  9994
2 67058  43.0021 316.7918 0002604 258.9190 101.1369 15.27578606 26757
HULIANWANG DIGUI-119    
1 67059U 25295A   26147.25671522 -.00000085  00000+0  83904-4 0  9991
2 67059  50.0029 100.8501 0000872   1.5387 358.5487 13.29327589 22712
HULIANWANG DIGUI-120    
1 67060U 25295B   26147.24000936 -.00000082  00000+0  90366-4 0  9994
2 67060  50.0032 100.7708 0000846   4.3225 355.7654 13.29327483 22717
HULIANWANG DIGUI-121    
1 67061U 25295C   26147.24836471 -.00000084  00000+0  85388-4 0  9996
2 67061  49.9993 100.7548 0000840   0.6334 359.4539 13.29327245 22716
HULIANWANG DIGUI-122    
1 67062U 25295D   26147.23159606 -.00000079  00000+0  96106-4 0  9998
2 67062  50.0029 100.7194 0000841   0.4801 359.6072 13.29328988 22714
HULIANWANG DIGUI-123    
1 67063U 25295E   26147.22326779 -.00000082  00000+0  91149-4 0  9991
2 67063  50.0030 100.6796 0000842   1.3721 358.7153 13.29328475 22717
HULIANWANG DIGUI-124    
1 67064U 25295F   26147.13983951 -.00000082  00000+0  91439-4 0  9995
2 67064  49.9988 100.8425 0000841   1.7030 358.3844 13.29325786 22708
