OBJECT_NAME,OBJECT_ID,EPOCH,MEAN_MOTION,ECCENTRICITY,INCLINATION,RA_OF_ASC_NODE,ARG_OF_PERICENTER,MEAN_ANOMALY,EPHEMERIS_TYPE,CLASSIFICATION_TYPE,NORAD_CAT_ID,ELEMENT_SET_NO,REV_AT_EPOCH,BSTAR,MEAN_MOTION_DOT,MEAN_MOTION_DDOT
STARLINK-36085,2025-294F,2026-05-26T11:44:23.017056,15.27595551,.0001572,43.0001,319.0506,273.4011,86.6661,0,U,67035,999,2669,.92923306E-3,.25409E-3,0
STARLINK-36125,2025-294G,2026-05-26T11:01:48.967392,15.27623294,.00024371,42.9965,318.8306,62.8693,297.2407,0,U,67036,999,2669,.13123607E-2,.36077E-3,0
STARLINK-35732,2025-294H,2026-05-26T20:58:13.887840,15.27546452,.0001465,43.0001,316.7808,264.6844,95.3841,0,U,67037,999,2675,.68116E-3,.1851E-3,0
STARLINK-35775,2025-294J,2026-05-26T20:08:15.794880,15.27584810,.00016696,43.0007,316.5146,282.3367,77.7298,0,U,67038,999,2676,.10867504E-2,.29768E-3,0
STARLINK-35705,2025-294K,2026-05-26T20:15:39.190176,15.27596844,.0001633,43.0018,316.5490,264.3390,95.7276,0,U,67039,999,2675,.10363648E-2,.28381E-3,0
STARLINK-35786,2025-294L,2026-05-26T19:20:21.679872,15.27597086,.00015105,43.0013,317.1333,292.2648,67.8043,0,U,67040,999,2674,.64586986E-3,.17562E-3,0
STARLINK-35765,2025-294M,2026-05-26T20:37:51.299328,15.27598708,.00016362,43.0026,316.6695,253.3145,106.7527,0,U,67041,999,2675,.52178748E-3,.14132E-3,0
STARLINK-35773,2025-294N,2026-05-26T11:09:13.636224,15.27600516,.00009807,42.9991,318.8665,248.0606,112.0141,0,U,67042,999,2669,.89206762E-3,.24382E-3,0
STARLINK-35901,2025-294P,2026-05-26T12:54:28.962144,15.27600427,.00012259,42.9985,318.5540,220.0299,140.0463,0,U,67043,999,2670,.60877094E-3,.16538E-3,0
STARLINK-35884,2025-294Q,2026-05-26T21:23:54.627072,15.27598287,.0002063,43.0038,316.0513,270.7418,89.3198,0,U,67044,999,2676,.10715E-2,.29357E-3,0
STARLINK-35891,2025-294R,2026-05-26T21:03:46.102752,15.27607299,.0001082,43.0029,316.8036,289.8006,70.2729,0,U,67045,999,2675,.89176E-3,.24378E-3,0
STARLINK-35721,2025-294S,2026-05-26T20:52:39.568224,15.27603508,.0002494,43.0041,316.7497,278.9669,81.0901,0,U,67046,999,2675,.90229E-3,.24669E-3,0
STARLINK-35779,2025-294T,2026-05-26T12:32:15.988128,15.27595777,.00002384,43.0017,318.4384,91.0087,269.0792,0,U,67047,999,2670,.36933712E-3,.992E-4,0
STARLINK-35905,2025-294U,2026-05-26T20:39:42.542784,15.27599315,.00016396,43.0026,316.6837,262.4704,97.5961,0,U,67048,999,2675,.75910897E-3,.20698E-3,0
STARLINK-35877,2025-294V,2026-05-26T21:00:03.838752,15.27605750,.0002411,43.0044,316.7908,281.7671,78.2910,0,U,67049,999,2675,.10398E-2,.28486E-3,0
STARLINK-36078,2025-294W,2026-05-26T12:15:37.753632,15.27589946,.00006407,43.0014,318.3441,225.5972,134.4828,0,U,67050,999,2670,.98759546E-3,.27022E-3,0
STARLINK-35706,2025-294X,2026-05-26T12:41:31.769088,15.27601769,.00008408,42.9983,318.4817,252.7407,107.3353,0,U,67051,999,2670,.7886486E-3,.21518E-3,0
STARLINK-35720,2025-294Y,2026-05-26T12:30:26.447616,15.27606775,.0001592,43.0047,318.4244,305.6361,54.4342,0,U,67052,999,2670,.14129465E-2,.38856E-3,0
STARLINK-35739,2025-294Z,2026-05-26T11:22:10.461216,15.27596985,.00012678,43.0011,318.9318,255.9900,104.0811,0,U,67053,999,2669,.83139197E-3,.22698E-3,0
STARLINK-35754,2025-294AA,2026-05-26T20:24:54.748224,15.27582711,.00014114,42.9984,316.5998,274.0669,86.0022,0,U,67054,999,2675,.66660542E-3,.18128E-3,0
STARLINK-35790,2025-294AB,2026-05-26T13:00:04.255488,15.27536452,.00011585,43.0005,318.5835,267.0789,92.9930,0,U,67055,999,2670,.87680864E-3,.23912E-3,0
STARLINK-36143,2025-294AC,2026-05-26T12:26:43.574496,15.27593105,.00010257,43.0028,318.4065,265.9348,94.1387,0,U,67056,999,2670,.6257362E-3,.17003E-3,0
STARLINK-36141,2025-294AD,2026-05-26T20:11:57.327936,15.27596373,.0001564,43.0021,316.5301,282.9509,77.1168,0,U,67057,999,2675,.63150551E-3,.17165E-3,0
STARLINK-35767,2025-294AE,2026-05-26T21:01:52.554144,15.27578606,.0002604,43.0021,316.7918,258.9190,101.1369,0,U,67058,999,2675,-.10828E-3,-.3241E-4,0
HULIANWANG DIGUI-119,2025-295A,2026-05-27T06:09:40.195008,13.29327589,.0000872,50.0029,100.8501,1.5387,358.5487,0,U,67059,999,2271,.83903537E-4,-.85E-6,0
HULIANWANG DIGUI-120,2025-295B,2026-05-27T05:45:36.808704,13.29327483,.00008466,50.0032,100.7708,4.3225,355.7654,0,U,67060,999,2271,.90366082E-4,-.82E-6,0
HULIANWANG DIGUI-121,2025-295C,2026-05-27T05:57:38.710944,13.29327245,.00008404,49.9993,100.7548,0.6334,359.4539,0,U,67061,999,2271,.85388387E-4,-.84E-6,0
HULIANWANG DIGUI-122,2025-295D,2026-05-27T05:33:29.899584,13.29328988,.00008413,50.0029,100.7194,0.4801,359.6072,0,U,67062,999,2271,.96106245E-4,-.79E-6,0
HULIANWANG DIGUI-123,2025-295E,2026-05-27T05:21:30.337056,13.29328475,.00008429,50.0030,100.6796,1.3721,358.7153,0,U,67063,999,2271,.91148596E-4,-.82E-6,0
HULIANWANG DIGUI-124,2025-295F,2026-05-27T03:21:22.133664,13.29325786,.00008418,49.9988,100.8425,1.7030,358.3844,0,U,67064,999,2270,.91438774E-4,-.82E-6,0
